{
  "type": "FeatureCollection",
  "features": [
    {
      "type": "Feature",
      "properties": {
        "norad_id": 31513,
        "name": "FENGYUN 1C DEB",
        "group": "fengyun-1c-debris",
        "lat": -51.36700700458128,
        "lon": 99.6625198511647,
        "alt_km": 809.2136492146356,
        "timestamp": "2025-12-17T13:48:37.837221+00:00",
        "meta_object_name": "FENGYUN 1C DEB",
        "meta_object_id": "1999-025BXC",
        "meta_epoch": "2025-11-25T02:15:23.832576",
        "meta_mean_motion": 14.32315683,
        "meta_eccentricity": 0.00282412,
        "meta_inclination": 98.8622,
        "meta_ra_of_asc_node": 65.435,
        "meta_arg_of_pericenter": 176.3464,
        "meta_mean_anomaly": 183.7931,
        "meta_ephemeris_type": 0,
        "meta_classification_type": "U",
        "meta_norad_cat_id": 31513,
        "meta_element_set_no": 999,
        "meta_rev_at_epoch": 72616,
        "meta_bstar": 0.0023967664,
        "meta_mean_motion_dot": 6.459e-05,
        "meta_mean_motion_ddot": 0,
        "tle_line1": "1 31513U 99025BXC 25329.09402584  .00006459  00000+0  23968-2 0  9994",
        "tle_line2": "2 31513  98.8622  65.4350 0028241 176.3464 183.7931 14.32315683726161"
      },
      "geometry": {
        "type": "Point",
        "coordinates": [
          99.6625198511647,
          -51.36700700458128
        ]
      }
    },
    {
      "type": "Feature",
      "properties": {
        "norad_id": 31514,
        "name": "FENGYUN 1C DEB",
        "group": "fengyun-1c-debris",
        "lat": 21.46085579303903,
        "lon": -111.13052413207015,
        "alt_km": 814.3002681139142,
        "timestamp": "2025-12-17T13:48:37.837230+00:00",
        "meta_object_name": "FENGYUN 1C DEB",
        "meta_object_id": "1999-025BXD",
        "meta_epoch": "2025-12-15T16:04:54.041952",
        "meta_mean_motion": 14.2100456,
        "meta_eccentricity": 0.00529963,
        "meta_inclination": 99.2473,
        "meta_ra_of_asc_node": 250.5484,
        "meta_arg_of_pericenter": 106.4219,
        "meta_mean_anomaly": 254.2791,
        "meta_ephemeris_type": 0,
        "meta_classification_type": "U",
        "meta_norad_cat_id": 31514,
        "meta_element_set_no": 999,
        "meta_rev_at_epoch": 69366,
        "meta_bstar": 0.0011998748,
        "meta_mean_motion_dot": 2.591e-05,
        "meta_mean_motion_ddot": 0,
        "tle_line1": "1 31514U 99025BXD 25349.67006993  .00002591  00000+0  11999-2 0  9999",
        "tle_line2": "2 31514  99.2473 250.5484 0052996 106.4219 254.2791 14.21004560693665"
      },
      "geometry": {
        "type": "Point",
        "coordinates": [
          -111.13052413207015,
          21.46085579303903
        ]
      }
    },
    {
      "type": "Feature",
      "properties": {
        "norad_id": 31516,
        "name": "FENGYUN 1C DEB",
        "group": "fengyun-1c-debris",
        "lat": 65.96911829938858,
        "lon": 87.10183868663613,
        "alt_km": 898.5269953025181,
        "timestamp": "2025-12-17T13:48:37.837240+00:00",
        "meta_object_name": "FENGYUN 1C DEB",
        "meta_object_id": "1999-025BXF",
        "meta_epoch": "2025-12-16T13:58:06.508128",
        "meta_mean_motion": 14.25419846,
        "meta_eccentricity": 0.014851,
        "meta_inclination": 98.8325,
        "meta_ra_of_asc_node": 106.5108,
        "meta_arg_of_pericenter": 227.3789,
        "meta_mean_anomaly": 146.0362,
        "meta_ephemeris_type": 0,
        "meta_classification_type": "U",
        "meta_norad_cat_id": 31516,
        "meta_element_set_no": 999,
        "meta_rev_at_epoch": 96547,
        "meta_bstar": 0.00043801673,
        "meta_mean_motion_dot": 1.113e-05,
        "meta_mean_motion_ddot": 0,
        "tle_line1": "1 31516U 99025BXF 25350.58201977  .00001113  00000+0  43802-3 0  9990",
        "tle_line2": "2 31516  98.8325 106.5108 0148510 227.3789 146.0362 14.25419846965478"
      },
      "geometry": {
        "type": "Point",
        "coordinates": [
          87.10183868663613,
          65.96911829938858
        ]
      }
    },
    {
      "type": "Feature",
      "properties": {
        "norad_id": 31519,
        "name": "FENGYUN 1C DEB",
        "group": "fengyun-1c-debris",
        "lat": 27.50398180639915,
        "lon": 172.50828654190937,
        "alt_km": 803.6857345451963,
        "timestamp": "2025-12-17T13:48:37.837249+00:00",
        "meta_object_name": "FENGYUN 1C DEB",
        "meta_object_id": "1999-025BXJ",
        "meta_epoch": "2025-12-16T05:02:22.485408",
        "meta_mean_motion": 14.23406214,
        "meta_eccentricity": 0.00517987,
        "meta_inclination": 98.5737,
        "meta_ra_of_asc_node": 346.6729,
        "meta_arg_of_pericenter": 232.372,
        "meta_mean_anomaly": 127.2752,
        "meta_ephemeris_type": 0,
        "meta_classification_type": "U",
        "meta_norad_cat_id": 31519,
        "meta_element_set_no": 999,
        "meta_rev_at_epoch": 64814,
        "meta_bstar": 0.00043071182,
        "meta_mean_motion_dot": 9.48e-06,
        "meta_mean_motion_ddot": 0,
        "tle_line1": "1 31519U 99025BXJ 25350.20998247  .00000948  00000+0  43071-3 0  9998",
        "tle_line2": "2 31519  98.5737 346.6729 0051798 232.3720 127.2752 14.23406214648142"
      },
      "geometry": {
        "type": "Point",
        "coordinates": [
          172.50828654190937,
          27.50398180639915
        ]
      }
    },
    {
      "type": "Feature",
      "properties": {
        "norad_id": 31522,
        "name": "FENGYUN 1C DEB",
        "group": "fengyun-1c-debris",
        "lat": -69.40902587497948,
        "lon": 165.50934335239424,
        "alt_km": 873.5958230501392,
        "timestamp": "2025-12-17T13:48:37.837259+00:00",
        "meta_object_name": "FENGYUN 1C DEB",
        "meta_object_id": "1999-025BXM",
        "meta_epoch": "2025-12-15T00:45:25.066368",
        "meta_mean_motion": 14.04003017,
        "meta_eccentricity": 0.00431798,
        "meta_inclination": 98.7072,
        "meta_ra_of_asc_node": 7.1449,
        "meta_arg_of_pericenter": 193.8575,
        "meta_mean_anomaly": 166.1411,
        "meta_ephemeris_type": 0,
        "meta_classification_type": "U",
        "meta_norad_cat_id": 31522,
        "meta_element_set_no": 999,
        "meta_rev_at_epoch": 95028,
        "meta_bstar": 0.00045521963,
        "meta_mean_motion_dot": 6.84e-06,
        "meta_mean_motion_ddot": 0,
        "tle_line1": "1 31522U 99025BXM 25349.03154012  .00000684  00000+0  45522-3 0  9995",
        "tle_line2": "2 31522  98.7072   7.1449 0043179 193.8575 166.1411 14.04003017950289"
      },
      "geometry": {
        "type": "Point",
        "coordinates": [
          165.50934335239424,
          -69.40902587497948
        ]
      }
    },
    {
      "type": "Feature",
      "properties": {
        "norad_id": 31523,
        "name": "FENGYUN 1C DEB",
        "group": "fengyun-1c-debris",
        "lat": -80.75602584185856,
        "lon": 147.75300932513682,
        "alt_km": 881.6372149884028,
        "timestamp": "2025-12-17T13:48:37.837271+00:00",
        "meta_object_name": "FENGYUN 1C DEB",
        "meta_object_id": "1999-025BXN",
        "meta_epoch": "2025-12-17T02:29:57.372864",
        "meta_mean_motion": 14.1386051,
        "meta_eccentricity": 0.00394675,
        "meta_inclination": 98.7567,
        "meta_ra_of_asc_node": 38.5599,
        "meta_arg_of_pericenter": 97.9366,
        "meta_mean_anomaly": 291.4891,
        "meta_ephemeris_type": 0,
        "meta_classification_type": "U",
        "meta_norad_cat_id": 31523,
        "meta_element_set_no": 999,
        "meta_rev_at_epoch": 96069,
        "meta_bstar": 2.5104506e-05,
        "meta_mean_motion_dot": 5e-08,
        "meta_mean_motion_ddot": 0,
        "tle_line1": "1 31523U 99025BXN 25351.10413626  .00000005  00000+0  25105-4 0  9999",
        "tle_line2": "2 31523  98.7567  38.5599 0039467  97.9366 291.4891 14.13860510960699"
      },
      "geometry": {
        "type": "Point",
        "coordinates": [
          147.75300932513682,
          -80.75602584185856
        ]
      }
    },
    {
      "type": "Feature",
      "properties": {
        "norad_id": 31527,
        "name": "FENGYUN 1C DEB",
        "group": "fengyun-1c-debris",
        "lat": -21.657578192481875,
        "lon": -27.11413341965351,
        "alt_km": 1142.4757254520046,
        "timestamp": "2025-12-17T13:48:37.837280+00:00",
        "meta_object_name": "FENGYUN 1C DEB",
        "meta_object_id": "1999-025BXS",
        "meta_epoch": "2025-12-13T21:39:09.060480",
        "meta_mean_motion": 13.23403725,
        "meta_eccentricity": 0.04500793,
        "meta_inclination": 98.8924,
        "meta_ra_of_asc_node": 153.3063,
        "meta_arg_of_pericenter": 297.5489,
        "meta_mean_anomaly": 58.059,
        "meta_ephemeris_type": 0,
        "meta_classification_type": "U",
        "meta_norad_cat_id": 31527,
        "meta_element_set_no": 999,
        "meta_rev_at_epoch": 90205,
        "meta_bstar": 0.00080308436,
        "meta_mean_motion_dot": 5.44e-06,
        "meta_mean_motion_ddot": 0,
        "tle_line1": "1 31527U 99025BXS 25347.90218820  .00000544  00000+0  80308-3 0  9998",
        "tle_line2": "2 31527  98.8924 153.3063 0450079 297.5489  58.0590 13.23403725902053"
      },
      "geometry": {
        "type": "Point",
        "coordinates": [
          -27.11413341965351,
          -21.657578192481875
        ]
      }
    }
  ]
}